STARLINK-6211           
1 57059U 23088M   26074.25001157  .00063924  00000+0  40804-2 0  9998
2 57059  43.0008  77.5091 0002323 271.1147  70.6576 15.07834171  5727
STARLINK-6227           
1 57060U 23088N   26074.25001157  .00024415  00000+0  16975-2 0  9994
2 57060  43.0003  77.5932 0002179 248.6556  59.1556 15.05073038  5770
STARLINK-5869           
1 57061U 23088P   26074.25001157 -.00007959  00000+0 -53313-3 0  9999
2 57061  43.0006  76.9778 0001635 258.3781 309.9856 15.05322389  5774
STARLINK-5536           
1 57062U 23088Q   26074.25001157  .00029972  00000+0  16687-2 0  9999
2 57062  43.0000  63.5618 0001602 257.5682 114.3171 15.13104296  5670
STARLINK-5832           
1 57063U 23088R   26074.25001157  .00029575  00000+0  19826-2 0  9997
2 57063  43.0004  76.8716 0000954 315.4565 295.6971 15.06348067  5774
STARLINK-5822           
1 57064U 23088S   26074.25001157  .00021194  00000+0  13955-2 0  9994
2 57064  43.0001  77.3283 0001831 280.4423 138.3784 15.07161999  5689
STARLINK-5830           
1 57065U 23088T   26073.73253347 -.00000303  00000+0 -73572-5 0  9992
2 57065  43.0014  80.4499 0000630 277.0201  83.0570 15.02538940150140
STARLINK-5827           
1 57066U 23088U   26072.41619579  .00000366  00000+0  42170-4 0  9996
2 57066  43.0032  86.9351 0001226 266.4615  93.6087 15.02534933149957
STARLINK-5824           
1 57067U 23088V   26074.25001157  .00022749  00000+0  15136-2 0  9997
2 57067  43.0002  77.2867 0001981 297.7575 135.9391 15.06741306  5834
STARLINK-5844           
1 57068U 23088W   26074.27062939  .00030230  00000+0  22283-2 0  9990
2 57068  43.0043  76.7635 0002053 285.3192  74.7424 15.02788317151216
STARLINK-5821           
1 57069U 23088X   26074.25001157  .00040287  00000+0  22277-2 0  9990
2 57069  43.0003  64.1343 0001141 309.0180 191.7751 15.13228034  5823
STARLINK-5828           
1 57070U 23088Y   26074.25001157  .00072654  00000+0  36393-2 0  9999
2 57070  43.0009  64.0907 0000788 305.0312 218.2518 15.16477201  5770
STARLINK-5834           
1 57071U 23088Z   26074.25001157  .00071193  00000+0  37295-2 0  9999
2 57071  43.0006  64.1510 0000804 322.5781 174.3177 15.14909364  5829
STARLINK-5843           
1 57072U 23088AA  26074.25001157  .00073904  00000+0  36961-2 0  9991
2 57072  43.0004  64.0337 0000732 289.0833 256.6147 15.16523998  5726
STARLINK-5838           
1 57073U 23088AB  26074.25001157  .00072562  00000+0  37438-2 0  9991
2 57073  43.0004  64.1816 0000793 331.3675 153.5221 15.15437446  5776
STARLINK-5773           
1 57074U 23088AC  26073.73575933  .00000120  00000+0  23952-4 0  9991
2 57074  43.0034  79.6286 0001165 275.8164  84.2545 15.02536238151137
