[{"OBJECT_NAME":"STARLINK-6211","OBJECT_ID":"2023-088M","EPOCH":"2026-03-15T06:00:00.999648","MEAN_MOTION":15.07834171,"ECCENTRICITY":0.00023233,"INCLINATION":43.0008,"RA_OF_ASC_NODE":77.5091,"ARG_OF_PERICENTER":271.1147,"MEAN_ANOMALY":70.6576,"EPHEMERIS_TYPE":0,"CLASSIFICATION_TYPE":"U","NORAD_CAT_ID":57059,"ELEMENT_SET_NO":999,"REV_AT_EPOCH":572,"BSTAR":0.0040803988,"MEAN_MOTION_DOT":0.00063924,"MEAN_MOTION_DDOT":0},{"OBJECT_NAME":"STARLINK-6227","OBJECT_ID":"2023-088N","EPOCH":"2026-03-15T06:00:00.999648","MEAN_MOTION":15.05073038,"ECCENTRICITY":0.00021798,"INCLINATION":43.0003,"RA_OF_ASC_NODE":77.5932,"ARG_OF_PERICENTER":248.6556,"MEAN_ANOMALY":59.1556,"EPHEMERIS_TYPE":0,"CLASSIFICATION_TYPE":"U","NORAD_CAT_ID":57060,"ELEMENT_SET_NO":999,"REV_AT_EPOCH":577,"BSTAR":0.0016975457,"MEAN_MOTION_DOT":0.00024415,"MEAN_MOTION_DDOT":0},{"OBJECT_NAME":"STARLINK-5869","OBJECT_ID":"2023-088P","EPOCH":"2026-03-15T06:00:00.999648","MEAN_MOTION":15.05322389,"ECCENTRICITY":0.00016352,"INCLINATION":43.0006,"RA_OF_ASC_NODE":76.9778,"ARG_OF_PERICENTER":258.3781,"MEAN_ANOMALY":309.9856,"EPHEMERIS_TYPE":0,"CLASSIFICATION_TYPE":"U","NORAD_CAT_ID":57061,"ELEMENT_SET_NO":999,"REV_AT_EPOCH":577,"BSTAR":-0.00053312702,"MEAN_MOTION_DOT":-7.959e-5,"MEAN_MOTION_DDOT":0},{"OBJECT_NAME":"STARLINK-5536","OBJECT_ID":"2023-088Q","EPOCH":"2026-03-15T06:00:00.999648","MEAN_MOTION":15.13104296,"ECCENTRICITY":0.00016027,"INCLINATION":43,"RA_OF_ASC_NODE":63.5618,"ARG_OF_PERICENTER":257.5682,"MEAN_ANOMALY":114.3171,"EPHEMERIS_TYPE":0,"CLASSIFICATION_TYPE":"U","NORAD_CAT_ID":57062,"ELEMENT_SET_NO":999,"REV_AT_EPOCH":567,"BSTAR":0.0016686997,"MEAN_MOTION_DOT":0.00029972,"MEAN_MOTION_DDOT":0},{"OBJECT_NAME":"STARLINK-5832","OBJECT_ID":"2023-088R","EPOCH":"2026-03-15T06:00:00.999648","MEAN_MOTION":15.06348067,"ECCENTRICITY":9.547e-5,"INCLINATION":43.0004,"RA_OF_ASC_NODE":76.8716,"ARG_OF_PERICENTER":315.4565,"MEAN_ANOMALY":295.6971,"EPHEMERIS_TYPE":0,"CLASSIFICATION_TYPE":"U","NORAD_CAT_ID":57063,"ELEMENT_SET_NO":999,"REV_AT_EPOCH":577,"BSTAR":0.0019826466,"MEAN_MOTION_DOT":0.00029575,"MEAN_MOTION_DDOT":0},{"OBJECT_NAME":"STARLINK-5822","OBJECT_ID":"2023-088S","EPOCH":"2026-03-15T06:00:00.999648","MEAN_MOTION":15.07161999,"ECCENTRICITY":0.0001831,"INCLINATION":43.0001,"RA_OF_ASC_NODE":77.3283,"ARG_OF_PERICENTER":280.4423,"MEAN_ANOMALY":138.3784,"EPHEMERIS_TYPE":0,"CLASSIFICATION_TYPE":"U","NORAD_CAT_ID":57064,"ELEMENT_SET_NO":999,"REV_AT_EPOCH":568,"BSTAR":0.0013954524,"MEAN_MOTION_DOT":0.00021194,"MEAN_MOTION_DDOT":0},{"OBJECT_NAME":"STARLINK-5830","OBJECT_ID":"2023-088T","EPOCH":"2026-03-14T17:34:50.891808","MEAN_MOTION":15.0253894,"ECCENTRICITY":6.303e-5,"INCLINATION":43.0014,"RA_OF_ASC_NODE":80.4499,"ARG_OF_PERICENTER":277.0201,"MEAN_ANOMALY":83.057,"EPHEMERIS_TYPE":0,"CLASSIFICATION_TYPE":"U","NORAD_CAT_ID":57065,"ELEMENT_SET_NO":999,"REV_AT_EPOCH":15014,"BSTAR":-7.357198e-6,"MEAN_MOTION_DOT":-3.03e-6,"MEAN_MOTION_DDOT":0},{"OBJECT_NAME":"STARLINK-5827","OBJECT_ID":"2023-088U","EPOCH":"2026-03-13T09:59:19.316256","MEAN_MOTION":15.02534933,"ECCENTRICITY":0.00012266,"INCLINATION":43.0032,"RA_OF_ASC_NODE":86.9351,"ARG_OF_PERICENTER":266.4615,"MEAN_ANOMALY":93.6087,"EPHEMERIS_TYPE":0,"CLASSIFICATION_TYPE":"U","NORAD_CAT_ID":57066,"ELEMENT_SET_NO":999,"REV_AT_EPOCH":14995,"BSTAR":4.2170151e-5,"MEAN_MOTION_DOT":3.66e-6,"MEAN_MOTION_DDOT":0},{"OBJECT_NAME":"STARLINK-5824","OBJECT_ID":"2023-088V","EPOCH":"2026-03-15T06:00:00.999648","MEAN_MOTION":15.06741306,"ECCENTRICITY":0.0001981,"INCLINATION":43.0002,"RA_OF_ASC_NODE":77.2867,"ARG_OF_PERICENTER":297.7575,"MEAN_ANOMALY":135.9391,"EPHEMERIS_TYPE":0,"CLASSIFICATION_TYPE":"U","NORAD_CAT_ID":57067,"ELEMENT_SET_NO":999,"REV_AT_EPOCH":583,"BSTAR":0.0015135642,"MEAN_MOTION_DOT":0.00022749,"MEAN_MOTION_DDOT":0},{"OBJECT_NAME":"STARLINK-5844","OBJECT_ID":"2023-088W","EPOCH":"2026-03-15T06:29:42.379296","MEAN_MOTION":15.02788317,"ECCENTRICITY":0.00020537,"INCLINATION":43.0043,"RA_OF_ASC_NODE":76.7635,"ARG_OF_PERICENTER":285.3192,"MEAN_ANOMALY":74.7424,"EPHEMERIS_TYPE":0,"CLASSIFICATION_TYPE":"U","NORAD_CAT_ID":57068,"ELEMENT_SET_NO":999,"REV_AT_EPOCH":15121,"BSTAR":0.0022282721,"MEAN_MOTION_DOT":0.0003023,"MEAN_MOTION_DDOT":0},{"OBJECT_NAME":"STARLINK-5821","OBJECT_ID":"2023-088X","EPOCH":"2026-03-15T06:00:00.999648","MEAN_MOTION":15.13228034,"ECCENTRICITY":0.00011419,"INCLINATION":43.0003,"RA_OF_ASC_NODE":64.1343,"ARG_OF_PERICENTER":309.018,"MEAN_ANOMALY":191.7751,"EPHEMERIS_TYPE":0,"CLASSIFICATION_TYPE":"U","NORAD_CAT_ID":57069,"ELEMENT_SET_NO":999,"REV_AT_EPOCH":582,"BSTAR":0.0022277302,"MEAN_MOTION_DOT":0.00040287,"MEAN_MOTION_DDOT":0},{"OBJECT_NAME":"STARLINK-5828","OBJECT_ID":"2023-088Y","EPOCH":"2026-03-15T06:00:00.999648","MEAN_MOTION":15.16477201,"ECCENTRICITY":7.88e-5,"INCLINATION":43.0009,"RA_OF_ASC_NODE":64.0907,"ARG_OF_PERICENTER":305.0312,"MEAN_ANOMALY":218.2518,"EPHEMERIS_TYPE":0,"CLASSIFICATION_TYPE":"U","NORAD_CAT_ID":57070,"ELEMENT_SET_NO":999,"REV_AT_EPOCH":577,"BSTAR":0.0036393003,"MEAN_MOTION_DOT":0.00072654,"MEAN_MOTION_DDOT":0},{"OBJECT_NAME":"STARLINK-5834","OBJECT_ID":"2023-088Z","EPOCH":"2026-03-15T06:00:00.999648","MEAN_MOTION":15.14909364,"ECCENTRICITY":8.041e-5,"INCLINATION":43.0006,"RA_OF_ASC_NODE":64.151,"ARG_OF_PERICENTER":322.5781,"MEAN_ANOMALY":174.3177,"EPHEMERIS_TYPE":0,"CLASSIFICATION_TYPE":"U","NORAD_CAT_ID":57071,"ELEMENT_SET_NO":999,"REV_AT_EPOCH":582,"BSTAR":0.0037295158,"MEAN_MOTION_DOT":0.00071193,"MEAN_MOTION_DDOT":0},{"OBJECT_NAME":"STARLINK-5843","OBJECT_ID":"2023-088AA","EPOCH":"2026-03-15T06:00:00.999648","MEAN_MOTION":15.16523998,"ECCENTRICITY":7.328e-5,"INCLINATION":43.0004,"RA_OF_ASC_NODE":64.0337,"ARG_OF_PERICENTER":289.0833,"MEAN_ANOMALY":256.6147,"EPHEMERIS_TYPE":0,"CLASSIFICATION_TYPE":"U","NORAD_CAT_ID":57072,"ELEMENT_SET_NO":999,"REV_AT_EPOCH":572,"BSTAR":0.0036961239,"MEAN_MOTION_DOT":0.00073904,"MEAN_MOTION_DDOT":0},{"OBJECT_NAME":"STARLINK-5838","OBJECT_ID":"2023-088AB","EPOCH":"2026-03-15T06:00:00.999648","MEAN_MOTION":15.15437446,"ECCENTRICITY":7.934e-5,"INCLINATION":43.0004,"RA_OF_ASC_NODE":64.1816,"ARG_OF_PERICENTER":331.3675,"MEAN_ANOMALY":153.5221,"EPHEMERIS_TYPE":0,"CLASSIFICATION_TYPE":"U","NORAD_CAT_ID":57073,"ELEMENT_SET_NO":999,"REV_AT_EPOCH":577,"BSTAR":0.0037438446,"MEAN_MOTION_DOT":0.00072562,"MEAN_MOTION_DDOT":0},{"OBJECT_NAME":"STARLINK-5773","OBJECT_ID":"2023-088AC","EPOCH":"2026-03-14T17:39:29.606112","MEAN_MOTION":15.02536238,"ECCENTRICITY":0.00011655,"INCLINATION":43.0034,"RA_OF_ASC_NODE":79.6286,"ARG_OF_PERICENTER":275.8164,"MEAN_ANOMALY":84.2545,"EPHEMERIS_TYPE":0,"CLASSIFICATION_TYPE":"U","NORAD_CAT_ID":57074,"ELEMENT_SET_NO":999,"REV_AT_EPOCH":15113,"BSTAR":2.3951782e-5,"MEAN_MOTION_DOT":1.2e-6,"MEAN_MOTION_DDOT":0}]
